OBJECT_NAME,OBJECT_ID,EPOCH,MEAN_MOTION,ECCENTRICITY,INCLINATION,RA_OF_ASC_NODE,ARG_OF_PERICENTER,MEAN_ANOMALY,EPHEMERIS_TYPE,CLASSIFICATION_TYPE,NORAD_CAT_ID,ELEMENT_SET_NO,REV_AT_EPOCH,BSTAR,MEAN_MOTION_DOT,MEAN_MOTION_DDOT
ONEWEB-0344,2021-083AA,2026-07-09T06:54:02.339712,13.13468602,.00022192,87.8966,315.8406,93.1343,267.0040,0,U,49210,999,23379,-.31990091E-3,-.104E-5,0
ONEWEB-0345,2021-083AB,2026-07-10T08:17:35.825856,13.13469217,.00022388,87.8983,315.6136,98.3885,261.7498,0,U,49211,999,23394,.69273651E-3,.266E-5,0
ONEWEB-0346,2021-083AC,2026-07-09T16:20:07.813536,13.18686846,.00016979,87.9182,330.9823,76.2694,283.8627,0,U,49212,999,23294,-.82179137E-4,-.19E-6,0
ONEWEB-0348,2021-083AD,2026-07-08T15:04:56.552448,13.20772749,.00022727,87.9197,270.1699,84.7172,275.4221,0,U,49213,999,23964,.27103357E-3,.123E-5,0
ONEWEB-0350,2021-083AE,2026-07-10T06:54:53.607744,13.13448837,.00022131,87.8924,315.6293,120.1008,240.0340,0,U,49214,999,23396,.98620892E-3,.373E-5,0
ONEWEB-0351,2021-083AF,2026-07-09T05:27:44.774784,13.20770157,.00026322,87.9188,270.0487,112.1446,247.9967,0,U,49215,999,23968,-.74932029E-4,-.17E-6,0
ONEWEB-0352,2021-083AG,2026-07-09T15:35:42.376992,13.13471182,.00022082,87.8996,315.7587,100.5318,259.6060,0,U,49216,999,23397,.11829846E-2,.445E-5,0
ONEWEB-0354,2021-083AH,2026-07-10T03:55:49.073088,13.20771263,.00023273,87.9188,269.8609,88.1639,271.9761,0,U,49217,999,23984,.16481933E-3,.8E-6,0
ONEWEB-0355,2021-083AJ,2026-07-09T07:09:49.844448,13.13300713,.00020436,87.8970,315.8320,101.5704,258.5654,0,U,49218,999,23380,.92726532E-3,.351E-5,0
ONEWEB-0357,2021-083AK,2026-07-09T04:12:46.827936,13.20770322,.00021714,87.9189,270.0517,102.6489,257.4888,0,U,49219,999,23971,-.25838733E-3,-.92E-6,0
JILIN-1 GAOFEN 2D,2021-086A,2026-07-10T06:37:10.450560,15.10842794,.00343583,97.6498,313.9837,66.9500,293.5346,0,U,49256,999,26420,.18443226E-3,.3042E-4,0
SHIYAN-10 01 (SY-10 01),2021-087A,2026-07-09T08:06:28.843776,2.00605945,.6914234,63.1223,217.5291,269.8292,17.7720,0,U,49258,999,3497,0,.758E-5,0
LANDSAT 9,2021-088A,2026-07-10T03:10:26.164992,14.57112869,.00011681,98.2271,261.0310,90.1172,270.0160,0,U,49260,999,25434,.49962337E-4,.18E-5,0
CS1,2021-088B,2026-07-09T18:19:02.355744,15.35362995,.0011227,97.3754,254.0486,6.3875,353.7509,0,U,49261,999,26388,.29804646E-3,.10179E-3,0
CS2,2021-088C,2026-07-10T03:26:03.109056,15.37083715,.00088159,97.3807,256.9427,10.3893,349.7531,0,U,49262,999,26404,.32955964E-3,.11897E-3,0
CUTE,2021-088D,2026-07-09T05:23:24.956160,16.06292562,.00031551,97.4021,291.8248,340.4103,19.7057,0,U,49263,999,26607,.6160581E-3,.451648E-2,.98741303E-4
CUPID,2021-088E,2026-07-10T03:21:20.432448,15.26332170,.00112366,97.3858,252.0692,351.0307,9.0729,0,U,49264,999,26368,.19851071E-3,.509E-4,0
ONEWEB-0332,2021-090A,2026-07-08T18:14:21.284448,13.14502736,.00019473,87.8968,285.4110,106.4800,253.6544,0,U,49279,999,23041,-.64383177E-3,-.226E-5,0
ONEWEB-0347,2021-090B,2026-07-10T03:36:24.486624,13.20769542,.00019539,87.9183,269.8650,105.1352,254.9997,0,U,49280,999,23407,-.30353237E-4,.1E-7,0
ONEWEB-0349,2021-090C,2026-07-10T04:22:27.649344,13.20772273,.00020855,87.9190,269.8597,98.8220,261.3149,0,U,49281,999,23286,-.32850048E-3,-.121E-5,0
ONEWEB-0353,2021-090D,2026-07-08T19:52:32.818368,13.14502022,.00018937,87.8973,285.3932,106.9835,253.1502,0,U,49282,999,23042,-.68671175E-3,-.242E-5,0
ONEWEB-0356,2021-090E,2026-07-10T04:20:03.126336,13.20769932,.00013569,87.9189,269.8533,86.9392,273.1897,0,U,49283,999,23286,.11005031E-3,.58E-6,0
ONEWEB-0358,2021-090F,2026-07-09T03:44:44.740896,13.20756474,.00022408,87.9158,270.0678,87.0513,273.0877,0,U,49284,999,23345,-.61042933E-2,-.2468E-4,0
ONEWEB-0359,2021-090G,2026-07-09T05:20:39.578784,13.20769954,.00021683,87.9188,270.0439,92.1989,267.9393,0,U,49285,999,23344,-.75702872E-4,-.18E-6,0
ONEWEB-0360,2021-090H,2026-07-08T18:11:36.552480,13.20770742,.00021785,87.9190,270.1426,99.9887,260.1492,0,U,49286,999,23269,-.14630911E-3,-.46E-6,0
ONEWEB-0361,2021-090J,2026-07-10T04:17:37.963104,13.20772362,.00020553,87.9189,269.8581,94.9176,265.2192,0,U,49287,999,23333,.84425829E-4,.47E-6,0
ONEWEB-0362,2021-090K,2026-07-09T05:45:29.062080,13.19725966,.00023205,87.9189,300.5845,107.0306,253.1082,0,U,49288,999,22982,.82208699E-4,.46E-6,0
ONEWEB-0363,2021-090L,2026-07-09T05:01:17.465952,13.20772061,.00017674,87.9191,270.0512,94.3466,265.7869,0,U,49289,999,23321,-.52187496E-4,-.8E-7,0
ONEWEB-0364,2021-090M,2026-07-10T03:46:06.295584,13.20770141,.00021145,87.9189,269.8699,99.3429,260.7944,0,U,49290,999,23447,.87326184E-4,.48E-6,0
ONEWEB-0365,2021-090N,2026-07-10T07:27:35.953056,13.19716591,.00017661,87.9186,300.3667,128.4104,231.7188,0,U,49291,999,22947,.37615541E-2,.1519E-4,0
ONEWEB-0366,2021-090P,2026-07-10T04:40:57.629280,13.14501825,.00020388,87.8975,285.1218,100.5575,259.5784,0,U,49292,999,23058,-.4049754E-4,-.2E-7,0
ONEWEB-0367,2021-090Q,2026-07-10T04:38:14.659872,13.20773100,.00022016,87.9189,269.8569,103.0976,257.0403,0,U,49293,999,23286,.40654236E-4,.3E-6,0
ONEWEB-0368,2021-090R,2026-07-10T04:00:40.813920,13.20771517,.00014744,87.9178,269.8701,113.5797,246.5492,0,U,49294,999,23401,.12464633E-3,.64E-6,0
ONEWEB-0369,2021-090S,2026-07-10T05:31:35.807520,13.19726370,.00019414,87.9181,300.3847,101.8675,258.2675,0,U,49295,999,22945,-.44819602E-4,-.5E-7,0
ONEWEB-0370,2021-090T,2026-07-10T04:51:34.927776,13.20771624,.00023022,87.9188,269.8551,97.7685,262.3709,0,U,49296,999,23290,-.6422788E-4,-.13E-6,0
ONEWEB-0371,2021-090U,2026-07-10T05:42:57.735072,13.19724947,.00021003,87.9190,300.3776,100.7840,259.3529,0,U,49297,999,22949,-.62477337E-4,-.12E-6,0
ONEWEB-0372,2021-090V,2026-07-10T04:36:48.497472,13.20773628,.0002056,87.9187,269.8585,101.2314,258.9051,0,U,49298,999,23287,.37396882E-4,.28E-6,0
ONEWEB-0373,2021-090W,2026-07-10T05:13:23.168928,13.20772879,.00021006,87.9186,269.8528,96.6878,263.4495,0,U,49299,999,23406,-.59399078E-4,-.11E-6,0
ONEWEB-0374,2021-090X,2026-07-10T06:12:17.383392,13.14502596,.00016338,87.8980,285.1001,90.8626,269.2691,0,U,49300,999,23059,.5122391E-3,.203E-5,0
ONEWEB-0375,2021-090Y,2026-07-08T18:23:43.015776,13.20772833,.00018109,87.9185,270.1340,84.1682,275.9658,0,U,49301,999,23337,.10678037E-3,.56E-6,0
ONEWEB-0376,2021-090Z,2026-07-08T20:55:30.809568,13.19726403,.00019962,87.9193,300.6487,106.8324,253.3028,0,U,49302,999,22931,-.38547925E-4,-.2E-7,0
ONEWEB-0377,2021-090AA,2026-07-10T04:37:13.813536,13.20773093,.00019944,87.9190,269.8520,94.2339,265.9022,0,U,49303,999,23355,-.14731707E-4,.7E-7,0
ONEWEB-0378,2021-090AB,2026-07-09T03:39:04.522752,13.20771915,.00019366,87.9186,270.0631,98.3723,261.7630,0,U,49304,999,23268,.3631387E-4,.28E-6,0
ONEWEB-0379,2021-090AC,2026-07-09T06:20:31.134336,13.14501939,.00018869,87.8976,285.3088,102.1027,258.0314,0,U,49305,999,23046,.46664491E-3,.186E-5,0
ONEWEB-0380,2021-090AD,2026-07-10T07:25:19.476480,13.19726460,.00020076,87.9181,300.3670,94.1985,265.9377,0,U,49306,999,22947,-.67607712E-4,-.14E-6,0
ONEWEB-0381,2021-090AE,2026-07-10T04:32:09.708864,13.20773127,.00018353,87.9199,269.8561,92.0334,268.1009,0,U,49307,999,23286,-.6976356E-5,.1E-6,0
ONEWEB-0382,2021-090AF,2026-07-10T04:12:47.817216,13.20771662,.00017994,87.9183,269.8543,96.1327,264.0011,0,U,49308,999,23285,.17745636E-3,.85E-6,0
ONEWEB-0383,2021-090AG,2026-07-10T05:56:18.860064,13.14502774,.00018587,87.8975,285.1055,101.2768,258.8571,0,U,49309,999,23062,.60443581E-3,.237E-5,0
ONEWEB-0384,2021-090AH,2026-07-10T03:55:23.521152,13.20813924,.00016043,87.9196,269.8999,96.7480,263.3836,0,U,49310,999,23286,.86825104E-4,.48E-6,0
ONEWEB-0385,2021-090AJ,2026-07-10T04:03:04.211136,13.20769588,.00019283,87.9188,269.8609,95.5653,264.5701,0,U,49311,999,23283,.85770087E-4,.48E-6,0
ONEWEB-0386,2021-090AK,2026-07-10T04:27:19.285632,13.20773378,.00018281,87.9185,269.8498,100.0586,260.0754,0,U,49312,999,23285,.49430037E-4,.33E-6,0
ONEWEB-0387,2021-090AL,2026-07-10T04:05:29.546304,13.20771096,.00020782,87.9174,269.8722,90.0727,270.0645,0,U,49313,999,23285,-.64142748E-3,-.248E-5,0
ONEWEB-0388,2021-090AM,2026-07-08T20:44:09.099744,13.19726759,.00018254,87.9182,300.6525,98.7963,261.3377,0,U,49314,999,22927,.14024626E-3,.69E-6,0
2021-091B,2021-091B,2026-07-10T07:40:28.033824,15.18666917,.00124172,97.4482,18.5440,326.6323,33.4127,0,U,49316,999,26249,.10159563E-3,.204E-4,0
2021-091D,2021-091D,2026-07-10T08:25:47.759808,14.00143290,.00099506,97.4484,219.8499,265.0221,94.9812,0,U,49318,999,25132,.75456309E-4,.8E-6,0
SHIJIAN-21 (SJ-21),2021-094A,2026-07-10T04:43:51.593952,1.00280484,.00516748,5.1644,61.0366,168.8311,256.9799,0,U,49330,999,559,0,-.341E-5,0
SES-17,2021-095A,2026-07-10T07:32:54.515040,1.00268752,.00008176,0.0224,43.1968,74.1763,216.9926,0,U,49332,999,1808,0,-.261E-5,0
SYRACUSE 4A,2021-095B,2026-07-10T06:58:38.056800,1.00264277,.00015039,0.0231,36.2175,69.6384,332.5356,0,U,49333,999,1817,0,0,0
QZS-1R (MICHIBIKI-1R),2021-096A,2026-07-09T14:14:06.654912,1.00247254,.07549588,37.5047,79.2525,272.1428,281.8869,0,U,49336,999,1723,0,-.279E-5,0
JILIN-1 GAOFEN 2F,2021-097A,2026-07-10T07:52:36.394464,15.07925856,.00196001,97.6719,317.4759,145.0649,215.1870,0,U,49338,999,25980,.13490822E-3,.2015E-4,0
YAOGAN-32 02A,2021-099A,2026-07-10T08:04:09.802848,14.64244134,.00022981,98.2499,325.1781,117.8942,242.2493,0,U,49383,999,24975,.92586807E-4,.439E-5,0
YAOGAN-32 02B,2021-099B,2026-07-10T08:04:01.239744,14.64241165,.00015705,98.2494,325.1862,115.2442,244.8924,0,U,49384,999,24975,.91009221E-4,.431E-5,0
SDGSAT 1,2021-100A,2026-07-10T06:49:08.027616,15.19220900,.00092472,97.2622,237.3507,179.7675,180.3566,0,U,49387,999,25942,.63505528E-4,.1273E-4,0
YAOGAN-35 01A,2021-101A,2026-07-10T05:59:47.407200,15.26897514,.00069901,34.9871,130.0254,234.0705,125.9363,0,U,49390,999,26040,.19093674E-3,.514E-4,0
YAOGAN-35 01C,2021-101D,2026-07-10T03:38:45.064608,15.23460998,.00068321,35.0038,120.4103,237.9018,122.1034,0,U,49393,999,26051,.29468607E-3,.7171E-4,0
